XY051E
1 13946U          20050.66785880  .00040845  00000-0  13953-2 0 00005
2 13946 035.0053 082.5318 0006151 273.8912 101.1933 15.29043866000016

XY051F
1 22741U          20050.66785880  .00041973  00000-0  14094-2 0 00008
2 22741 035.0053 082.5326 0006688 297.4661 077.1673 15.29588926000010